BEIDOU-2 G8             
1 44231U 19027A   26158.51679432 -.00000232  00000+0  00000+0 0  9998
2 44231   1.6330  74.4868 0010595 284.4148 227.5758  1.00274845 25988
COSMOS 2534 [GLONASS-M] 
1 44299U 19030A   26158.24347285  .00000085  00000+0  00000+0 0  9999
2 44299  64.3678 192.9512 0013229 275.1737 155.4482  2.13102468 54715
BEIDOU-3 IGSO-2         
1 44337U 19035A   26157.58006347 -.00000062  00000+0  00000+0 0  9990
2 44337  55.2446 158.9549 0039839 216.2059 208.5586  1.00270343 25569
NAVSTAR 78 (USA 293)    
1 44506U 19056A   26157.17406002 -.00000063  00000+0  00000+0 0  9999
2 44506  55.6435 331.5809 0061451 197.4701 157.7136  2.00569824 49845
BEIDOU-3 M24            
1 44542U 19061A   26158.04033366  .00000094  00000+0  00000+0 0  9994
2 44542  54.3958 183.0701 0008259 359.4055   0.6489  1.86229304 45607
BEIDOU-3 M23            
1 44543U 19061B   26158.26233385  .00000096  00000+0  00000+0 0  9994
2 44543  54.3944 183.0309 0005504 338.9956  81.5590  1.86227660 45614
EUTELSAT 5 WEST B       
1 44624U 19067A   26158.34463183 -.00000028  00000+0  00000+0 0  9996
2 44624   0.0638 344.0775 0003235  92.6359 298.1144  1.00272063 24338
BEIDOU-3 IGSO-3         
1 44709U 19073A   26136.81046384 -.00000217  00000+0  00000+0 0  9995
2 44709  54.8566 281.2355 0042953 189.4588 170.3676  1.00246251 24144
BEIDOU-3 M22            
1 44793U 19078A   26157.87999258 -.00000055  00000+0  00000+0 0  9999
2 44793  53.9461 300.1905 0006612  49.5382 310.5120  1.86227673 44452
BEIDOU-3 M21            
1 44794U 19078B   26157.48297852 -.00000055  00000+0  00000+0 0  9998
2 44794  53.9193 300.1657 0004525  47.8129 312.2176  1.86228140 44450
COSMOS 2544 [GLONASS-M] 
1 44850U 19088A   26158.17488406 -.00000009  00000+0  00000+0 0  9995
2 44850  65.5604  74.0645 0013687 259.7365 100.1318  2.13102192 50502
BEIDOU-3 M19            
1 44864U 19090A   26157.45598128 -.00000038  00000+0  00000+0 0  9998
2 44864  56.5493  63.1460 0018115 297.5322 241.6390  1.86231867 44034
BEIDOU-3 M20            
1 44865U 19090B   26157.32280718 -.00000038  00000+0  00000+0 0  9998
2 44865  56.5509  63.1852 0016140 310.9731 228.5055  1.86231730 44017
BEIDOU-3 G2             
1 45344U 20017A   26158.50405212 -.00000127  00000+0  00000+0 0  9990
2 45344   2.8440  47.1934 0002595  26.8167  83.4011  1.00274036 23161
COSMOS 2545 [GLONASS-M] 
1 45358U 20018A   26157.90066816 -.00000030  00000+0  00000+0 0  9995
2 45358  64.3618 312.7805 0007889 231.9816 127.9440  2.13102875 48449
BEIDOU-3 G3             
1 45807U 20040A   26158.51011880 -.00000339  00000+0  00000+0 0  9990
2 45807   2.4229  67.4251 0002966 337.6024 145.1099  1.00272746 21975
NAVSTAR 79 (USA 304)    
1 45854U 20041A   26158.25877977 -.00000067  00000+0  00000+0 0  9999
2 45854  56.6630  29.3293 0063511 204.6382 152.6104  2.00559028 43831
GALAXY 30 (G-30)        
1 46114U 20056C   26158.46339566  .00000051  00000+0  00000+0 0  9997
2 46114   0.0182 352.6044 0002266  81.7758 223.3024  1.00272703 21196
COSMOS 2547 [GLONASS-K] 
1 46805U 20075A   26156.21307741  .00000069  00000+0  00000+0 0  9995
2 46805  64.5987 192.8757 0009155 239.4130 120.5675  2.13100365 43650
NAVSTAR 80 (USA 309)    
1 46826U 20078A   26158.27322421  .00000049  00000+0  00000+0 0  9999
2 46826  53.9811 211.1810 0073128 206.9373 136.7497  2.00564936 41300
NAVSTAR 81 (USA 319)    
1 48859U 21054A   26158.28426993 -.00000062  00000+0  00000+0 0  9998
2 48859  55.1799 332.8582 0025078 228.6121 309.2145  2.00569773 36559
QZS-1R (MICHIBIKI-1R)   
1 49336U 21096A   26157.65764851 -.00000234  00000+0  00000+0 0  9994
2 49336  37.4401  79.7406 0754231 271.5748 275.1259  1.00259679 16901
GSAT0223 (GALILEO 27)   
1 49809U 21116A   26156.84191771 -.00000066  00000+0  00000+0 0  9990
2 49809  57.1638 341.9819 0001178 182.7956 174.1817  1.70476196 27988
GSAT0224 (GALILEO 28)   
1 49810U 21116B   26157.83497244 -.00000064  00000+0  00000+0 0  9994
2 49810  57.1648 341.9539 0000904 146.6403 212.4208  1.70476178 28028
COSMOS 2557 [GLONASS-K] 
1 52984U 22075A   26155.90818447 -.00000037  00000+0  00000+0 0  9993
2 52984  64.3043 314.9179 0010156 276.0496  83.8276  2.13102273 30458
COSMOS 2559 [GLONASS-K] 
1 54031U 22130A   26157.13557347 -.00000032  00000+0  00000+0 0  9991
2 54031  64.2805 314.9582 0012373 177.2217 182.7817  2.13101704 28457
COSMOS 2564 [GLONASS-M] 
1 54377U 22161A   26157.44814877  .00000077  00000+0  00000+0 0  9994
2 54377  64.7407 193.0683 0012054 224.2405 135.7317  2.13102053 27404
NAVSTAR 82 (USA 343)    
1 55268U 23009A   26158.23864182  .00000101  00000+0  00000+0 0  9996
2 55268  55.1217 148.9102 0006193 318.0671 224.9740  2.00572185 25048
BEIDOU-3 G4             
1 56564U 23066A   26158.52544556 -.00000268  00000+0  00000+0 0  9996
2 56564   0.4983 328.9001 0004411 169.5404  86.6324  1.00267260 11290
NVS-01 (IRNSS-1J)       
1 56759U 23076A   26158.44254411 -.00000321  00000+0  00000+0 0  9992
2 56759   2.1901 244.8005 0002952  41.2051 258.7515  1.00270298 11016
COSMOS 2569 [GLONASS-K2]
1 57517U 23114A   26157.92975490 -.00000010  00000+0  00000+0 0  9992
2 57517  65.2965  72.9664 0011067 296.7940  63.1169  2.13103762 22045
